NORAD_CAT_ID,OBJECT_NAME,OBJECT_TYPE,EPOCH,MEAN_MOTION,ECCENTRICITY,INCLINATION,RA_OF_ASC_NODE,ARG_OF_PERICENTER,MEAN_ANOMALY,BSTAR,MEAN_MOTION_DOT,MEAN_MOTION_DDOT,TLE_LINE0,TLE_LINE1,TLE_LINE2,SEMIMAJOR_AXIS,PERIOD,APOGEE,PERIGEE,DECAYED
52574.0,STARLINK-3901,PAYLOAD,2023-08-12 10:02:35,15.08833529,3.69e-05,53.2181,20.1649,118.0841,242.0189,-1.5712e-05,-5.37e-06,0.0,0 STARLINK-3901,1 52574U 22051AQ  23224.41847153 -.00000537  00000-0 -15712-4 0  9996,2 52574  53.2181  20.1649 0000369 118.0841 242.0189 15.08833529 69700,6917.9,95.438,540.02,539.51,0.0
52574.0,STARLINK-3901,PAYLOAD,2023-08-12 22:45:40,15.08851635,9.86e-05,53.2155,17.783,88.2195,271.891,0.00032188,4.84e-05,0.0,0 STARLINK-3901,1 52574U 22051AQ  23224.94838616  .00004840  00000-0  32188-3 0  9992,2 52574  53.2155  17.7830 0000986  88.2195 271.8910 15.08851635 69788,6917.845,95.437,540.392,539.028,0.0
52574.0,STARLINK-3901,PAYLOAD,2023-08-13 09:53:22,15.08831658,4.98e-05,53.217,15.7028,90.4979,269.607,-9.901e-05,-1.862e-05,0.0,0 STARLINK-3901,1 52574U 22051AQ  23225.41207116 -.00001862  00000-0 -99010-4 0  9991,2 52574  53.2170  15.7028 0000498  90.4979 269.6070 15.08831658 69858,6917.906,95.438,540.115,539.426,0.0
52574.0,STARLINK-3901,PAYLOAD,2023-08-13 16:14:55,15.08842468,7.9e-05,53.2164,14.5134,87.3815,272.7268,0.00018504,2.659e-05,0.0,0 STARLINK-3901,1 52574U 22051AQ  23225.67702970  .00002659  00000-0  18504-3 0  9998,2 52574  53.2164  14.5134 0000790  87.3815 272.7268 15.08842468 69894,6917.873,95.437,540.284,539.191,0.0
52574.0,STARLINK-3901,PAYLOAD,2023-08-14 16:05:42,15.08844364,9.91e-05,53.2174,10.0539,81.5618,278.5487,0.00037859,5.743e-05,0.0,0 STARLINK-3901,1 52574U 22051AQ  23226.67063297  .00005743  00000-0  37859-3 0  9992,2 52574  53.2174  10.0539 0000991  81.5618 278.5487 15.08844364 70048,6917.867,95.437,540.418,539.046,0.0
52574.0,STARLINK-3901,PAYLOAD,2023-08-15 09:34:57,15.08842616,0.0001321,53.2158,6.783,82.2883,277.8259,0.00015191,2.131e-05,0.0,0 STARLINK-3901,1 52574U 22051AQ  23227.39927352  .00002131  00000-0  15191-3 0  9996,2 52574  53.2158   6.7830 0001321  82.2883 277.8259 15.08842616 70155,6917.872,95.437,540.651,538.824,0.0
52574.0,STARLINK-3901,PAYLOAD,2023-08-15 20:42:38,15.08853683,0.0001001,53.2172,4.7016,86.6282,273.4825,0.00034629,5.23e-05,0.0,0 STARLINK-3901,1 52574U 22051AQ  23227.86294798  .00005230  00000-0  34629-3 0  9999,2 52574  53.2172   4.7016 0001001  86.6282 273.4825 15.08853683 70226,6917.839,95.437,540.396,539.011,0.0
52574.0,STARLINK-3901,PAYLOAD,2023-08-16 09:25:44,15.08842026,0.0001535,53.2141,2.32,98.7894,261.3272,5.5068e-05,5.89e-06,0.0,0 STARLINK-3901,1 52574U 22051AQ  23228.39287218  .00000589  00000-0  55068-4 0  9990,2 52574  53.2141   2.3200 0001535  98.7894 261.3272 15.08842026 70306,6917.874,95.437,540.801,538.677,0.0
52574.0,STARLINK-3901,PAYLOAD,2023-08-18 01:10:22,15.08844957,9.5e-05,53.2203,354.8898,99.2776,260.8324,8.7454e-05,1.105e-05,0.0,0 STARLINK-3901,1 52574U 22051AQ  23230.04887097  .00001105  00000-0  87454-4 0  9995,2 52574  53.2203 354.8898 0000950  99.2776 260.8324 15.08844957 70552,6917.865,95.437,540.387,539.073,0.0
52574.0,STARLINK-3901,PAYLOAD,2023-08-18 09:07:18,15.08834532,0.0001019,53.2217,353.4048,104.7177,255.3928,1.0259e-05,-1.24e-06,0.0,0 STARLINK-3901,1 52574U 22051AQ  23230.38007616 -.00000124  00000-0  10259-4 0  9993,2 52574  53.2217 353.4048 0001019 104.7177 255.3928 15.08834532 70606,6917.897,95.438,540.467,539.057,0.0
52574.0,STARLINK-3901,PAYLOAD,2023-08-18 17:04:13,15.08843399,0.0001,53.219,351.9153,103.658,256.4523,0.00013521,1.865e-05,0.0,0 STARLINK-3901,1 52574U 22051AQ  23230.71127312  .00001865  00000-0  13521-3 0  9992,2 52574  53.2190 351.9153 0001000 103.6580 256.4523 15.08843399 70651,6917.87,95.437,540.427,539.043,0.0
52574.0,STARLINK-3901,PAYLOAD,2023-08-19 12:08:51,15.08840832,0.0001005,53.2187,348.3478,104.043,256.0674,9.2925e-05,1.191e-05,0.0,0 STARLINK-3901,1 52574U 22051AQ  23231.50615538  .00001191  00000-0  92925-4 0  9990,2 52574  53.2187 348.3478 0001005 104.0430 256.0674 15.08840832 70776,6917.878,95.438,540.438,539.048,0.0
52574.0,STARLINK-3901,PAYLOAD,2023-08-20 11:59:39,15.08836324,0.0001029,53.2183,343.8871,96.2866,263.8243,0.00010499,1.383e-05,0.0,0 STARLINK-3901,1 52574U 22051AQ  23232.49975967  .00001383  00000-0  10499-3 0  9992,2 52574  53.2183 343.8871 0001029  96.2866 263.8243 15.08836324 70926,6917.892,95.438,540.468,539.045,0.0
52574.0,STARLINK-3901,PAYLOAD,2023-08-21 15:01:12,15.08848411,8.97e-05,53.2181,338.8312,85.3171,274.7923,0.00011062,1.474e-05,0.0,0 STARLINK-3901,1 52574U 22051AQ  23233.62583414  .00001474  00000-0  11062-3 0  9998,2 52574  53.2181 338.8312 0000897  85.3171 274.7923 15.08848411 71093,6917.855,95.437,540.34,539.099,0.0
52574.0,STARLINK-3901,PAYLOAD,2023-08-22 11:41:13,15.08839211,0.0001142,53.2193,334.9664,96.6083,263.5039,9.1109e-05,1.162e-05,0.0,0 STARLINK-3901,1 52574U 22051AQ  23234.48696094  .00001162  00000-0  91109-4 0  9997,2 52574  53.2193 334.9664 0001142  96.6083 263.5039 15.08839211 71221,6917.883,95.438,540.538,538.958,0.0
52574.0,STARLINK-3901,PAYLOAD,2023-08-23 11:31:59,15.08863856,0.0001609,53.2193,330.502,88.5364,271.5812,-0.00031702,-5.333e-05,0.0,0 STARLINK-3901,1 52574U 22051AQ  23235.48055329 -.00005333  00000-0 -31702-3 0  9996,2 52574  53.2193 330.5020 0001609  88.5364 271.5812 15.08863856 71375,6917.807,95.436,540.786,538.559,0.0
52574.0,STARLINK-3901,PAYLOAD,2023-08-24 11:22:47,15.08848933,0.0001258,53.2184,326.0423,115.135,244.9773,-7.4039e-05,-1.466e-05,0.0,0 STARLINK-3901,1 52574U 22051AQ  23236.47416099 -.00001466  00000-0 -74039-4 0  9995,2 52574  53.2184 326.0423 0001258 115.1350 244.9773 15.08848933 71452,6917.853,95.437,540.588,538.848,0.0
52574.0,STARLINK-3901,PAYLOAD,2023-08-25 09:38:11,15.08817847,0.0001526,53.2179,321.8824,129.4005,230.7122,0.00035003,5.284e-05,0.0,0 STARLINK-3901,1 52574U 22051AQ  23237.40152622  .00005284  00000-0  35003-3 0  9995,2 52574  53.2179 321.8824 0001526 129.4005 230.7122 15.08817847 71661,6917.948,95.439,540.869,538.757,0.0
52574.0,STARLINK-3901,PAYLOAD,2023-08-25 12:48:57,15.08843212,0.0001151,53.2183,321.2871,104.9328,255.1792,6.9125e-05,8.13e-06,0.0,0 STARLINK-3901,1 52574U 22051AQ  23237.53400225  .00000813  00000-0  69125-4 0  9990,2 52574  53.2183 321.2871 0001151 104.9328 255.1792 15.08843212 71616,6917.871,95.437,540.532,538.939,0.0
52574.0,STARLINK-3901,PAYLOAD,2023-08-26 11:04:22,15.08838639,0.0001346,53.2185,317.1249,109.2889,250.8249,4.8175e-05,4.79e-06,0.0,0 STARLINK-3901,1 52574U 22051AQ  23238.46136757  .00000479  00000-0  48175-4 0  9999,2 52574  53.2185 317.1249 0001346 109.2889 250.8249 15.08838639 71826,6917.885,95.438,540.681,538.818,0.0
52574.0,STARLINK-3901,PAYLOAD,2023-08-27 09:19:46,15.08838089,0.0001339,53.2184,312.9616,104.379,255.7351,3.495e-05,2.68e-06,0.0,0 STARLINK-3901,1 52574U 22051AQ  23239.38872943  .00000268  00000-0  34950-4 0  9997,2 52574  53.2184 312.9616 0001339 104.3790 255.7351 15.08838089 71899,6917.886,95.438,540.678,538.825,0.0
52574.0,STARLINK-3901,PAYLOAD,2023-08-27 12:30:32,15.08841297,0.0001211,53.2179,312.3664,99.3221,260.7908,5.5703e-05,5.99e-06,0.0,0 STARLINK-3901,1 52574U 22051AQ  23239.52120702  .00000599  00000-0  55703-4 0  9998,2 52574  53.2179 312.3664 0001211  99.3221 260.7908 15.08841297 71980,6917.876,95.437,540.579,538.904,0.0
52574.0,STARLINK-3901,PAYLOAD,2023-08-28 12:21:19,15.08845597,0.000117,53.2171,307.9054,85.3005,274.8121,8.3606e-05,1.043e-05,0.0,0 STARLINK-3901,1 52574U 22051AQ  23240.51480431  .00001043  00000-0  83606-4 0  9995,2 52574  53.2171 307.9054 0001170  85.3005 274.8121 15.08845597 72064,6917.863,95.437,540.538,538.919,0.0
52574.0,STARLINK-3901,PAYLOAD,2023-08-28 21:53:37,15.08843096,0.0001192,53.2174,306.1216,88.2479,271.865,7.9575e-05,9.79e-06,0.0,0 STARLINK-3901,1 52574U 22051AQ  23240.91224521  .00000979  00000-0  79575-4 0  9992,2 52574  53.2174 306.1216 0001192  88.2479 271.8650 15.08843096 72199,6917.871,95.437,540.561,538.911,0.0
52574.0,STARLINK-3901,PAYLOAD,2023-08-29 15:22:52,15.08847201,0.0001231,53.2169,302.85,86.9096,273.2037,9.6887e-05,1.255e-05,0.0,0 STARLINK-3901,1 52574U 22051AQ  23241.64088147  .00001255  00000-0  96887-4 0  9998,2 52574  53.2169 302.8500 0001231  86.9096 273.2037 15.08847201 72238,6917.858,95.437,540.575,538.872,0.0
52574.0,STARLINK-3901,PAYLOAD,2023-08-30 04:05:57,15.08839203,0.0001248,53.2173,300.4704,94.4743,265.6392,-1.4058e-05,-5.12e-06,0.0,0 STARLINK-3901,1 52574U 22051AQ  23242.17080932 -.00000512  00000-0 -14058-4 0  9998,2 52574  53.2173 300.4704 0001248  94.4743 265.6392 15.08839203 72382,6917.883,95.438,540.611,538.884,0.0
52574.0,STARLINK-3901,PAYLOAD,2023-08-30 15:13:38,15.0885124,0.0001288,53.2165,298.3892,91.9958,268.1182,0.00010096,1.32e-05,0.0,0 STARLINK-3901,1 52574U 22051AQ  23242.63447667  .00001320  00000-0  10096-3 0  9994,2 52574  53.2165 298.3892 0001288  91.9958 268.1182 15.08851240 72458,6917.846,95.437,540.602,538.82,0.0
52574.0,STARLINK-3901,PAYLOAD,2023-08-31 03:56:45,15.08834781,0.000122,53.2165,296.0106,93.575,266.5382,-1.1382e-05,-4.69e-06,0.0,0 STARLINK-3901,1 52574U 22051AQ  23243.16441007 -.00000469  00000-0 -11382-4 0  9990,2 52574  53.2165 296.0106 0001220  93.5750 266.5382 15.08834781 72539,6917.896,95.438,540.605,538.917,0.0
52574.0,STARLINK-3901,PAYLOAD,2023-09-01 11:44:27,15.08842425,0.0001334,53.2162,290.0631,92.4698,267.6447,1.1501e-05,-1.05e-06,0.0,0 STARLINK-3901,1 52574U 22051AQ  23244.48920819 -.00000105  00000-0  11501-4 0  9998,2 52574  53.2162 290.0631 0001334  92.4698 267.6447 15.08842425 72738,6917.873,95.437,540.661,538.815,0.0
52574.0,STARLINK-3901,PAYLOAD,2023-09-01 19:41:23,15.08843641,0.0001321,53.2158,288.5765,91.867,268.2473,-7.3808e-06,-4.05e-06,0.0,0 STARLINK-3901,1 52574U 22051AQ  23244.82040756 -.00000405  00000-0 -73808-5 0  9992,2 52574  53.2158 288.5765 0001321  91.8670 268.2473 15.08843641 72717,6917.869,95.437,540.648,538.82,0.0
